ONEWEB-0281             
1 48999U 21060AJ  26018.65632955  .00000131  00000+0  30965-3 0  9996
2 48999  87.9024 258.5428 0001559  75.8642 284.2662 13.16595930219955
ONEWEB-0282             
1 49000U 21060AK  26018.61040864  .00000031  00000+0  46347-4 0  9999
2 49000  87.9026 258.5625 0001314  77.7714 282.3564 13.16595205219922
ONEWEB-0283             
1 49001U 21060AL  26018.59932502  .00000043  00000+0  79567-4 0  9999
2 49001  87.9027 258.5648 0001367  72.2400 287.8880 13.16595788219937
ONEWEB-0284             
1 49002U 21060AM  26018.59299615  .00000023  00000+0  27811-4 0  9994
2 49002  87.9030 258.5563 0001308  93.4505 266.6776 13.16595144219917
ONEWEB-0285             
1 49075U 21075A   26018.55847386 -.00000315  00000+0 -91041-3 0  9991
2 49075  87.8928  20.3667 0001710  89.2799 270.8526 13.12440588215583
ONEWEB-0286             
1 49076U 21075B   26018.46502490  .00000180  00000+0  46518-3 0  9993
2 49076  87.8924  20.4165 0001971  89.1668 270.9687 13.12442500214929
ONEWEB-0287             
1 49077U 21075C   26018.57241268  .00000073  00000+0  15531-3 0  9991
2 49077  87.9089  35.6023 0002225  96.9576 263.1809 13.17648056213929
ONEWEB-0288             
1 49078U 21075D   26018.51767008  .00000322  00000+0  85939-3 0  9997
2 49078  87.8930  20.3700 0001751  92.5748 267.5581 13.12445753215553
ONEWEB-0289             
1 49079U 21075E   26018.45919288  .00000038  00000+0  65874-4 0  9991
2 49079  87.9082  35.6371 0001553 104.1284 256.0020 13.17647192214489
ONEWEB-0290             
1 49080U 21075F   26018.58421746  .00000039  00000+0  67894-4 0  9999
2 49080  87.9094  35.5770 0001247 103.7726 256.3544 13.17650479213915
ONEWEB-0291             
1 49081U 21075G   26018.56902641  .00000086  00000+0  18934-3 0  9998
2 49081  87.9092  35.5881 0001963 103.0670 257.0680 13.17650529213907
ONEWEB-0293             
1 49082U 21075H   26018.59433918  .00000003  00000+0 -25840-4 0  9993
2 49082  87.9084  35.5995 0001709  95.9883 264.1444 13.17650866213932
ONEWEB-0294             
1 49083U 21075J   26018.52444873  .00000472  00000+0  12769-2 0  9992
2 49083  87.8930  20.3711 0001511  98.1948 261.9352 13.12445517214943
ONEWEB-0295             
1 49084U 21075K   26018.59348526 -.00000009  00000+0 -55457-4 0  9999
2 49084  87.9081  35.6039 0002049 100.5130 259.6233 13.17647364213896
ONEWEB-0296             
1 49085U 21075L   26018.50410952 -.00000216  00000+0 -63657-3 0  9994
2 49085  87.8929  20.3782 0001928  98.8290 261.3057 13.12445712214943
ONEWEB-0297             
1 49086U 21075M   26018.45838394  .00000405  00000+0  10908-2 0  9991
2 49086  87.8919  20.4167 0001858  90.5744 269.5597 13.12443528215545
ONEWEB-0298             
1 49087U 21075N   26018.59783036 -.00000373  00000+0 -99266-3 0  9990
2 49087  87.9079  35.5997 0001882  89.6939 270.4408 13.17665201213925
