[{"OBJECT_NAME":"ONEWEB-0281","OBJECT_ID":"2021-060AJ","EPOCH":"2026-01-18T15:45:06.873120","MEAN_MOTION":13.1659593,"ECCENTRICITY":0.00015592,"INCLINATION":87.9024,"RA_OF_ASC_NODE":258.5428,"ARG_OF_PERICENTER":75.8642,"MEAN_ANOMALY":284.2662,"EPHEMERIS_TYPE":0,"CLASSIFICATION_TYPE":"U","NORAD_CAT_ID":48999,"ELEMENT_SET_NO":999,"REV_AT_EPOCH":21995,"BSTAR":0.00030965137,"MEAN_MOTION_DOT":1.31e-6,"MEAN_MOTION_DDOT":0},{"OBJECT_NAME":"ONEWEB-0282","OBJECT_ID":"2021-060AK","EPOCH":"2026-01-18T14:38:59.306496","MEAN_MOTION":13.16595205,"ECCENTRICITY":0.00013148,"INCLINATION":87.9026,"RA_OF_ASC_NODE":258.5625,"ARG_OF_PERICENTER":77.7714,"MEAN_ANOMALY":282.3564,"EPHEMERIS_TYPE":0,"CLASSIFICATION_TYPE":"U","NORAD_CAT_ID":49000,"ELEMENT_SET_NO":999,"REV_AT_EPOCH":21992,"BSTAR":4.6347053e-5,"MEAN_MOTION_DOT":3.1e-7,"MEAN_MOTION_DDOT":0},{"OBJECT_NAME":"ONEWEB-0283","OBJECT_ID":"2021-060AL","EPOCH":"2026-01-18T14:23:01.681728","MEAN_MOTION":13.16595788,"ECCENTRICITY":0.00013673,"INCLINATION":87.9027,"RA_OF_ASC_NODE":258.5648,"ARG_OF_PERICENTER":72.24,"MEAN_ANOMALY":287.888,"EPHEMERIS_TYPE":0,"CLASSIFICATION_TYPE":"U","NORAD_CAT_ID":49001,"ELEMENT_SET_NO":999,"REV_AT_EPOCH":21993,"BSTAR":7.9566505e-5,"MEAN_MOTION_DOT":4.3e-7,"MEAN_MOTION_DDOT":0},{"OBJECT_NAME":"ONEWEB-0284","OBJECT_ID":"2021-060AM","EPOCH":"2026-01-18T14:13:54.867360","MEAN_MOTION":13.16595144,"ECCENTRICITY":0.00013089,"INCLINATION":87.903,"RA_OF_ASC_NODE":258.5563,"ARG_OF_PERICENTER":93.4505,"MEAN_ANOMALY":266.6776,"EPHEMERIS_TYPE":0,"CLASSIFICATION_TYPE":"U","NORAD_CAT_ID":49002,"ELEMENT_SET_NO":999,"REV_AT_EPOCH":21991,"BSTAR":2.7810639e-5,"MEAN_MOTION_DOT":2.3e-7,"MEAN_MOTION_DDOT":0},{"OBJECT_NAME":"ONEWEB-0285","OBJECT_ID":"2021-075A","EPOCH":"2026-01-18T13:24:12.141504","MEAN_MOTION":13.12440588,"ECCENTRICITY":0.000171,"INCLINATION":87.8928,"RA_OF_ASC_NODE":20.3667,"ARG_OF_PERICENTER":89.2799,"MEAN_ANOMALY":270.8526,"EPHEMERIS_TYPE":0,"CLASSIFICATION_TYPE":"U","NORAD_CAT_ID":49075,"ELEMENT_SET_NO":999,"REV_AT_EPOCH":21558,"BSTAR":-0.00091040813,"MEAN_MOTION_DOT":-3.15e-6,"MEAN_MOTION_DDOT":0},{"OBJECT_NAME":"ONEWEB-0286","OBJECT_ID":"2021-075B","EPOCH":"2026-01-18T11:09:38.151360","MEAN_MOTION":13.124425,"ECCENTRICITY":0.00019711,"INCLINATION":87.8924,"RA_OF_ASC_NODE":20.4165,"ARG_OF_PERICENTER":89.1668,"MEAN_ANOMALY":270.9687,"EPHEMERIS_TYPE":0,"CLASSIFICATION_TYPE":"U","NORAD_CAT_ID":49076,"ELEMENT_SET_NO":999,"REV_AT_EPOCH":21492,"BSTAR":0.00046517613,"MEAN_MOTION_DOT":1.8e-6,"MEAN_MOTION_DDOT":0},{"OBJECT_NAME":"ONEWEB-0287","OBJECT_ID":"2021-075C","EPOCH":"2026-01-18T13:44:16.455552","MEAN_MOTION":13.17648056,"ECCENTRICITY":0.00022258,"INCLINATION":87.9089,"RA_OF_ASC_NODE":35.6023,"ARG_OF_PERICENTER":96.9576,"MEAN_ANOMALY":263.1809,"EPHEMERIS_TYPE":0,"CLASSIFICATION_TYPE":"U","NORAD_CAT_ID":49077,"ELEMENT_SET_NO":999,"REV_AT_EPOCH":21392,"BSTAR":0.00015531134,"MEAN_MOTION_DOT":7.3e-7,"MEAN_MOTION_DDOT":0},{"OBJECT_NAME":"ONEWEB-0288","OBJECT_ID":"2021-075D","EPOCH":"2026-01-18T12:25:26.694912","MEAN_MOTION":13.12445753,"ECCENTRICITY":0.0001751,"INCLINATION":87.893,"RA_OF_ASC_NODE":20.37,"ARG_OF_PERICENTER":92.5748,"MEAN_ANOMALY":267.5581,"EPHEMERIS_TYPE":0,"CLASSIFICATION_TYPE":"U","NORAD_CAT_ID":49078,"ELEMENT_SET_NO":999,"REV_AT_EPOCH":21555,"BSTAR":0.00085939428,"MEAN_MOTION_DOT":3.22e-6,"MEAN_MOTION_DDOT":0},{"OBJECT_NAME":"ONEWEB-0289","OBJECT_ID":"2021-075E","EPOCH":"2026-01-18T11:01:14.264832","MEAN_MOTION":13.17647192,"ECCENTRICITY":0.00015538,"INCLINATION":87.9082,"RA_OF_ASC_NODE":35.6371,"ARG_OF_PERICENTER":104.1284,"MEAN_ANOMALY":256.002,"EPHEMERIS_TYPE":0,"CLASSIFICATION_TYPE":"U","NORAD_CAT_ID":49079,"ELEMENT_SET_NO":999,"REV_AT_EPOCH":21448,"BSTAR":6.5874404e-5,"MEAN_MOTION_DOT":3.8e-7,"MEAN_MOTION_DDOT":0},{"OBJECT_NAME":"ONEWEB-0290","OBJECT_ID":"2021-075F","EPOCH":"2026-01-18T14:01:16.388544","MEAN_MOTION":13.17650479,"ECCENTRICITY":0.00012479,"INCLINATION":87.9094,"RA_OF_ASC_NODE":35.577,"ARG_OF_PERICENTER":103.7726,"MEAN_ANOMALY":256.3544,"EPHEMERIS_TYPE":0,"CLASSIFICATION_TYPE":"U","NORAD_CAT_ID":49080,"ELEMENT_SET_NO":999,"REV_AT_EPOCH":21391,"BSTAR":6.789359e-5,"MEAN_MOTION_DOT":3.9e-7,"MEAN_MOTION_DDOT":0},{"OBJECT_NAME":"ONEWEB-0291","OBJECT_ID":"2021-075G","EPOCH":"2026-01-18T13:39:23.881824","MEAN_MOTION":13.17650529,"ECCENTRICITY":0.00019637,"INCLINATION":87.9092,"RA_OF_ASC_NODE":35.5881,"ARG_OF_PERICENTER":103.067,"MEAN_ANOMALY":257.068,"EPHEMERIS_TYPE":0,"CLASSIFICATION_TYPE":"U","NORAD_CAT_ID":49081,"ELEMENT_SET_NO":999,"REV_AT_EPOCH":21390,"BSTAR":0.00018933946,"MEAN_MOTION_DOT":8.6e-7,"MEAN_MOTION_DDOT":0},{"OBJECT_NAME":"ONEWEB-0293","OBJECT_ID":"2021-075H","EPOCH":"2026-01-18T14:15:50.905152","MEAN_MOTION":13.17650866,"ECCENTRICITY":0.00017098,"INCLINATION":87.9084,"RA_OF_ASC_NODE":35.5995,"ARG_OF_PERICENTER":95.9883,"MEAN_ANOMALY":264.1444,"EPHEMERIS_TYPE":0,"CLASSIFICATION_TYPE":"U","NORAD_CAT_ID":49082,"ELEMENT_SET_NO":999,"REV_AT_EPOCH":21393,"BSTAR":-2.5840101e-5,"MEAN_MOTION_DOT":3.0e-8,"MEAN_MOTION_DDOT":0},{"OBJECT_NAME":"ONEWEB-0294","OBJECT_ID":"2021-075J","EPOCH":"2026-01-18T12:35:12.370272","MEAN_MOTION":13.12445517,"ECCENTRICITY":0.00015111,"INCLINATION":87.893,"RA_OF_ASC_NODE":20.3711,"ARG_OF_PERICENTER":98.1948,"MEAN_ANOMALY":261.9352,"EPHEMERIS_TYPE":0,"CLASSIFICATION_TYPE":"U","NORAD_CAT_ID":49083,"ELEMENT_SET_NO":999,"REV_AT_EPOCH":21494,"BSTAR":0.0012769346,"MEAN_MOTION_DOT":4.72e-6,"MEAN_MOTION_DDOT":0},{"OBJECT_NAME":"ONEWEB-0295","OBJECT_ID":"2021-075K","EPOCH":"2026-01-18T14:14:37.126464","MEAN_MOTION":13.17647364,"ECCENTRICITY":0.00020499,"INCLINATION":87.9081,"RA_OF_ASC_NODE":35.6039,"ARG_OF_PERICENTER":100.513,"MEAN_ANOMALY":259.6233,"EPHEMERIS_TYPE":0,"CLASSIFICATION_TYPE":"U","NORAD_CAT_ID":49084,"ELEMENT_SET_NO":999,"REV_AT_EPOCH":21389,"BSTAR":-5.5457346e-5,"MEAN_MOTION_DOT":-9.0e-8,"MEAN_MOTION_DDOT":0},{"OBJECT_NAME":"ONEWEB-0296","OBJECT_ID":"2021-075L","EPOCH":"2026-01-18T12:05:55.062528","MEAN_MOTION":13.12445712,"ECCENTRICITY":0.00019287,"INCLINATION":87.8929,"RA_OF_ASC_NODE":20.3782,"ARG_OF_PERICENTER":98.829,"MEAN_ANOMALY":261.3057,"EPHEMERIS_TYPE":0,"CLASSIFICATION_TYPE":"U","NORAD_CAT_ID":49085,"ELEMENT_SET_NO":999,"REV_AT_EPOCH":21494,"BSTAR":-0.00063656531,"MEAN_MOTION_DOT":-2.16e-6,"MEAN_MOTION_DDOT":0},{"OBJECT_NAME":"ONEWEB-0297","OBJECT_ID":"2021-075M","EPOCH":"2026-01-18T11:00:04.372416","MEAN_MOTION":13.12443528,"ECCENTRICITY":0.0001858,"INCLINATION":87.8919,"RA_OF_ASC_NODE":20.4167,"ARG_OF_PERICENTER":90.5744,"MEAN_ANOMALY":269.5597,"EPHEMERIS_TYPE":0,"CLASSIFICATION_TYPE":"U","NORAD_CAT_ID":49086,"ELEMENT_SET_NO":999,"REV_AT_EPOCH":21554,"BSTAR":0.0010907659,"MEAN_MOTION_DOT":4.05e-6,"MEAN_MOTION_DDOT":0},{"OBJECT_NAME":"ONEWEB-0298","OBJECT_ID":"2021-075N","EPOCH":"2026-01-18T14:20:52.543104","MEAN_MOTION":13.17665201,"ECCENTRICITY":0.00018826,"INCLINATION":87.9079,"RA_OF_ASC_NODE":35.5997,"ARG_OF_PERICENTER":89.6939,"MEAN_ANOMALY":270.4408,"EPHEMERIS_TYPE":0,"CLASSIFICATION_TYPE":"U","NORAD_CAT_ID":49087,"ELEMENT_SET_NO":999,"REV_AT_EPOCH":21392,"BSTAR":-0.00099265622,"MEAN_MOTION_DOT":-3.73e-6,"MEAN_MOTION_DDOT":0}]
